IRIDIUM 106             
1 41917U 17003A   26019.83739139  .00000278  00000+0  92073-4 0  9995
2 41917  86.4015 150.5513 0002147  84.9431 275.2010 14.34219298471946
IRIDIUM 103             
1 41918U 17003B   26019.89447092  .00000074  00000+0  19276-4 0  9994
2 41918  86.4015 150.4278 0002439 100.2449 259.9022 14.34218126471973
IRIDIUM 109             
1 41919U 17003C   26019.83104440  .00000106  00000+0  30687-4 0  9991
2 41919  86.4019 150.5115 0002108  96.3307 263.8129 14.34218265471932
IRIDIUM 102             
1 41920U 17003D   26019.86909880  .00000173  00000+0  54716-4 0  9990
2 41920  86.4016 150.4221 0001968  97.6690 262.4730 14.34218429472026
IRIDIUM 105             
1 41921U 17003E   26019.77005889  .00000301  00000+0  10027-3 0  9996
2 41921  86.3991 118.9498 0002132  97.2895 262.8544 14.34217154473864
IRIDIUM 104             
1 41922U 17003F   26019.88178441  .00000119  00000+0  35253-4 0  9990
2 41922  86.4016 150.4573 0002139 105.0358 255.1075 14.34218505472019
IRIDIUM 114             
1 41923U 17003G   26019.88812788  .00000042  00000+0  79431-5 0  9992
2 41923  86.4015 150.4384 0002160 100.4951 259.6488 14.34217963471991
IRIDIUM 108             
1 41924U 17003H   26019.77687995  .00000001  00000+0 -67000-5 0  9996
2 41924  86.3986 118.8343 0001830  96.0749 264.0656 14.34217902473834
